{
  "norad_id": 25153,
  "name": "INMARSAT 3-F5",
  "history": [
    {
      "epoch": "2026-03-28T19:39:42.812064",
      "apogee_km": 35807.68119236041,
      "perigee_km": 35763.9276703371,
      "latitude_deg": 6.918861955347123,
      "longitude_deg": 13.947568960022181,
      "semi_major_axis_km": 42163.94143134876,
      "eccentricity": 0.00051885,
      "inclination_deg": 9.5159,
      "raan_deg": 54.0427,
      "arg_perigee_deg": 311.4727,
      "mean_anomaly_deg": 61.6227,
      "mean_motion_rev_day": 1.00274605
    }
  ]
}